#dP2021  6  4  0  0  0.00000000      96 __u+U ITR00 EXT  IAC
## 2160 432000.00000000   900.00000000 59369 0.0000000000000
+  116   C06C07C08C09C10C11C12C13C14C16C19C20C21C22C23C24C25
+        C26C27C28C29C30C32C33C34C35C36C37C38C39C40C41C42C43
+        C44C45C46E01E02E03E04E05E07E08E09E11E12E13E14E15E18
+        E19E21E24E25E26E27E30E31E33E36G01G02G03G04G05G06G07
+        G08G09G10G12G13G14G15G16G17G18G19G20G21G22G23G24G25
+        G26G27G28G29G30G31G32J01J02J03R01R02R03R04R05R07R08
+        R09R11R12R13R14R15R16R17R18R19R20R21R22R24  0  0  0
++         9 11 13  9 10  9  9 12  9 10  8  9 10  9 10  8  9
++         8  7  8  9 10  7  8  9  8  8 10 10 10  9  8  8  8
++         9  9  9  7  7  7  8  8  8  8  7  8  9  9  8  7  6
++         8  8  8  7  7  7  7  6  8  7  6  7  7  8  8  7  7
++         6  8  7  8  8  7  7 10  7  7  8  8  7  8  8  8  8
++         8  5  8  7  8  7  7 10 13 10  7  8  8  8  8  7  8
++        10 10  8  8  9  9  9  9  9  8  9  7 10 10  0  0  0
%c M  cc GPS ccc cccc cccc cccc cccc ccccc ccccc ccccc ccccc
%c cc cc ccc ccc cccc cccc cccc cccc ccccc ccccc ccccc ccccc
%f  0.0000000  0.000000000  0.00000000000  0.000000000000000
%f  0.0000000  0.000000000  0.00000000000  0.000000000000000
%i    0    0    0    0      0      0      0      0         0
%i    0    0    0    0      0      0      0      0         0
/* IAC                                ULTRA-RAPID PREDICTION
/* S/V CLOCKS ARE ALIGNED TO GNSS TIME                      
/* G:C1WC2W R:C1PC2P E:C1XC5X C:C2IC6I J:C1CC2S             
/* PCV:IGS14_2148 OL/AL:FES2004  NONE     YN ORB:CoN CLK:CoN
*  2021 06 04 14 30  0.00000000
PC06  -7984.464219  32516.189126  26402.926052    463.599974
PC07 -19756.634432  22763.341777 -29409.006459    109.192903
PC08 -22128.314321  35105.860124   6394.066953   -892.462242
PC09   2610.968771  39936.391566  14269.112087    473.237413
PC10  -2093.919482  26361.273734 -32639.264031    -34.001482
PC11 -14997.444504 -17922.779135 -15226.255502    380.256149
PC12  -6427.951577 -27129.098000   1443.336843    856.559931
PC13 -12523.657644  36125.420900  17594.284093    287.145335
PC14 -24023.036473 -11691.385225  -8138.677207    919.013309
PC16  -5043.428399  34057.351762  24617.817860   -878.182131
PC19  27256.743809   5807.583932  -1156.755741    860.081624
PC20  18130.449206  15054.071489  14940.386873   -889.266928
PC21   2301.073022 -15757.950836 -22894.254415   -936.879857
PC22  20825.420115  -7102.617939 -17136.455182   -951.859524
PC23 -21592.603984  16959.323707   5009.358963   -925.529256
PC24  -6507.794355 -15866.621898  22013.629018   -878.590992
PC25 -20330.772960   1967.742849  19003.382736   -906.359834
PC26   9252.577919 -23134.733706  12592.977105    897.441858
PC27   -285.164310  25990.594348 -10203.511502    542.816407
PC28 -12212.529580  12468.622824 -21775.436423    -66.328792
PC29  17272.302758   7666.638899  20523.442625    401.536038
PC30  12426.492043  24048.650503   6821.192790    469.464345
PC32  -2247.437673  15794.879406  22914.894138   -927.219995
PC33 -27312.350168  -5675.345518   1138.022216   -936.578083
PC34 -12761.122370 -23633.392300  -7541.846731   -658.036169
PC35  12024.010345 -12518.649203  21833.225587   -248.985189
PC36  20214.504034  -1169.959630 -19174.567061   -726.934958
PC37 -10528.942353  22947.599318 -11852.489991   -880.464658
PC38 -18944.933277  36384.083486   9408.329197    153.108772
PC39  -1205.365355  35208.889071  23290.191648     31.545019
PC40  -9205.820767  20985.742493 -35379.705274    167.676748
PC41 -21054.688563   7035.474231  16963.122564   -945.810456
PC42 -17554.047981 -15258.819031 -15386.875045   -913.464202
PC43 -17346.999870  -8252.631344 -20244.400844   -761.204742
PC44   -409.292643 -25906.714117  10307.303285    222.500020
PC45  21501.075028 -17116.188800  -4888.800888    458.289953
PC46   7410.340957  15006.341064 -22317.614809    239.704533
PE01     39.413133  17121.316538 -24144.878216  -1122.186107
PE02   -173.374581 -17091.528230  24165.980769    223.787899
PE03  -9943.108023 -23267.594417 -15367.044475   -438.318995
PE04  23086.608385  18408.191290  -2047.576522   -785.336946
PE05   9275.082769 -14535.554324 -24051.175799   -275.596065
PE07 -22873.668193  -2563.038973  18631.014318   -545.867511
PE08 -23304.634481 -18106.229050   2398.570587   5991.319194
PE09  22722.819848   2372.763419 -18801.731605   5644.917785
PE11  16855.471683  -7016.105992  23281.517947   5893.845490
PE12  11743.710424  15658.982397  22206.149975   5176.804913
PE13 -16769.303409   6617.396670 -23480.359596    417.303514
PE14 -20934.416150 -20874.260518  -6713.899014  -1454.576363
PE15 -11757.414064 -15542.872676 -22275.823438    810.623795
PE18  11049.075389  23770.042139  -4645.737366  -1592.843988
PE19   7879.285758  22873.164191  17067.659353    293.903961
PE21 -19492.085258  16883.766006 -14534.349695   -668.773294
PE24  28592.233585  -6122.965785  -4676.130089   -936.764046
PE25  19656.375959 -16828.437223  14378.857441   -535.908630
PE26 -11691.351026  25263.088067 -10067.225239   1731.976510
PE27 -28536.740108   6836.477575   3871.983275    -47.068896
PE30 -19940.709158  -7931.164364  20374.408213   2890.558505
PE31  20745.968784   7147.866861 -19859.176219   -481.863629
PE33   -170.435764  28515.758014   7957.487459   -469.354606
PE36  11897.881204 -24826.473426  10858.637869   -216.378434
PG01  13959.523897 -21156.786259   7044.550831    668.800583
PG02 -15391.956213    129.242444 -21003.374579   -609.752935
PG03  18456.707459 -12515.130434 -14425.180720   -182.679192
PG04   8267.106682 -13795.429711 -21119.437924   -198.782819
PG05 -26097.770549   5323.712731   1064.413289    -43.953046
PG06  -9933.274589 -12665.795281 -21059.446561     23.012491
PG07   5292.885656 -24977.406135   6655.169449    169.463369
PG08  15323.448025  -4370.518051  21284.908681    -23.815364
PG09  -2358.052268 -21095.337591 -16010.404808   -349.376894
PG10  12099.837584  12391.874698  20328.114108   -135.638910
PG12 -20410.933671  10516.154323 -13483.469398    -50.390822
PG13 -17998.102102  -5242.261976  18737.687588    140.602963
PG14 -11267.648965 -13186.407108  20116.078133     75.236197
PG15 -15134.454339   6497.986022  20524.994162   -144.699794
PG16  26600.792454   1086.806631  -3407.047043   -335.970068
PG17 -12807.689437 -23043.377295   3627.545620    453.210829
PG18  -3582.006053  24533.027423   9418.955600    348.185261
PG19 -17023.506703 -19595.066966  -6213.858966      8.978603
PG20 -24491.427657   9347.235779   2944.372991    521.504364
PG21  16084.283993 -15117.720005  15107.601550    122.802354
PG22  24107.194046  -9584.639392  -4996.509014   -597.014362
PG23   -785.621351  15339.548437  21643.310536    100.366182
PG24 -15031.630617  18080.478998  11714.506152    115.656098
PG25  -8447.734190  15373.883958 -20127.212110    149.780424
PG26  22859.280929   5261.776429 -12769.277366     94.116439
PG27  19655.496395   7250.358227  16364.861227   -141.606223
PG28 -16703.890722 -11353.916697  17700.045849    560.197107
PG29    462.528395  20702.955731 -16651.980184   -358.567440
PG30  -4580.377303 -20100.805012  16678.659128   -434.802058
PG31  12344.134176   9630.553511 -21492.044495   -121.169580
PG32  15876.415583  21389.435579   1074.778699     19.570258
PJ01 -28579.236232  20525.012917  28293.733489   -389.925741
PJ02 -35648.755134  20233.895226  -5453.228133     -0.119318
PJ03 -19320.423599  26759.369982 -21675.052125     -7.169732
PR01  -5484.744917 -13395.343379 -21001.332764     80.399842
PR02 -21533.208464 -12625.864639  -5059.172950    481.144411
PR03 -22112.466978  -3739.517612  12154.650156     37.123586
PR04 -10194.437588   6872.223217  22380.930941     89.807124
PR05   7348.126907  13814.349772  20167.556561     72.967529
PR07  21917.762892   3455.792609 -12578.864399    -42.379167
PR08  10192.921401  -6975.236074 -22261.037092    -59.350223
PR09  12134.626500   4496.443804 -21951.380396     -3.744571
PR11  18241.565664 -16856.999295   5788.705787     -9.207024
PR12   4453.307260 -15029.443586  20155.179453    234.451416
PR13 -11488.371161  -4739.454980  22261.644536    -55.771865
PR14 -21271.160403   8786.832373  11032.337899     64.978590
PR15 -18233.655334  16710.926452  -6228.426523    103.455197
PR16  -2908.901119  14742.168609 -20596.108371    -15.938604
PR17 -10526.782730    743.626201 -23221.091105    429.804432
PR18  -6212.760244  17838.465157 -17163.816813     78.884464
PR19    263.301761  25347.787968  -2847.095834   -146.411746
PR20   8213.144660  18030.282842  16094.307149    -50.298386
PR21  10310.291712  -2136.549831  23227.515874   -214.048589
PR22   5891.008366 -18508.776774  16456.622134   -116.033539
PR24  -9024.259961 -17269.224234 -16458.876997     45.244768
EOF
